{
  "type": "FeatureCollection",
  "features": [
    {
      "type": "Feature",
      "properties": {
        "norad_id": 37781,
        "name": "HAIYANG-2A",
        "group": "resource",
        "lat": -70.92724931805029,
        "lon": 133.91551945469172,
        "alt_km": 976.4141291876749,
        "timestamp": "2025-12-07T07:31:35.959775+00:00",
        "meta_object_name": "HAIYANG-2A",
        "meta_object_id": "2011-043A",
        "meta_epoch": "2025-12-06T23:20:09.813120",
        "meta_mean_motion": 13.78834643,
        "meta_eccentricity": 0.00016555,
        "meta_inclination": 99.3377,
        "meta_ra_of_asc_node": 341.9958,
        "meta_arg_of_pericenter": 92.6112,
        "meta_mean_anomaly": 267.5229,
        "meta_ephemeris_type": 0,
        "meta_classification_type": "U",
        "meta_norad_cat_id": 37781,
        "meta_element_set_no": 999,
        "meta_rev_at_epoch": 72019,
        "meta_bstar": 4.8960206e-05,
        "meta_mean_motion_dot": 6e-08,
        "meta_mean_motion_ddot": 0,
        "tle_line1": "1 37781U 11043A   25340.97233580  .00000006  00000+0  48960-4 0  9992",
        "tle_line2": "2 37781  99.3377 341.9958 0001655  92.6112 267.5229 13.78834643720192"
      },
      "geometry": {
        "type": "Point",
        "coordinates": [
          133.91551945469172,
          -70.92724931805029
        ]
      }
    },
    {
      "type": "Feature",
      "properties": {
        "norad_id": 37791,
        "name": "RASAT",
        "group": "resource",
        "lat": 71.10228680304581,
        "lon": 46.181357611980665,
        "alt_km": 645.6191342878883,
        "timestamp": "2025-12-07T07:31:35.959785+00:00",
        "meta_object_name": "RASAT",
        "meta_object_id": "2011-044D",
        "meta_epoch": "2025-12-06T21:52:01.821216",
        "meta_mean_motion": 14.67896746,
        "meta_eccentricity": 0.00219444,
        "meta_inclination": 98.0656,
        "meta_ra_of_asc_node": 70.2555,
        "meta_arg_of_pericenter": 82.6325,
        "meta_mean_anomaly": 24.698,
        "meta_ephemeris_type": 0,
        "meta_classification_type": "U",
        "meta_norad_cat_id": 37791,
        "meta_element_set_no": 999,
        "meta_rev_at_epoch": 76497,
        "meta_bstar": 0.00021306928,
        "meta_mean_motion_dot": 1.174e-05,
        "meta_mean_motion_ddot": 0,
        "tle_line1": "1 37791U 11044D   25340.91113219  .00001174  00000+0  21307-3 0  9996",
        "tle_line2": "2 37791  98.0656  70.2555 0021944  82.6325  24.6980 14.67896746764973"
      },
      "geometry": {
        "type": "Point",
        "coordinates": [
          46.181357611980665,
          71.10228680304581
        ]
      }
    },
    {
      "type": "Feature",
      "properties": {
        "norad_id": 37841,
        "name": "SRMSAT",
        "group": "resource",
        "lat": 6.006229549578622,
        "lon": -56.04699892820757,
        "alt_km": 851.2096487185163,
        "timestamp": "2025-12-07T07:31:35.959795+00:00",
        "meta_object_name": "SRMSAT",
        "meta_object_id": "2011-058D",
        "meta_epoch": "2025-12-06T19:05:36.707136",
        "meta_mean_motion": 14.11508393,
        "meta_eccentricity": 0.00117158,
        "meta_inclination": 19.9699,
        "meta_ra_of_asc_node": 143.9277,
        "meta_arg_of_pericenter": 247.4073,
        "meta_mean_anomaly": 156.7228,
        "meta_ephemeris_type": 0,
        "meta_classification_type": "U",
        "meta_norad_cat_id": 37841,
        "meta_element_set_no": 999,
        "meta_rev_at_epoch": 73060,
        "meta_bstar": 0.0001534577,
        "meta_mean_motion_dot": 5.48e-06,
        "meta_mean_motion_ddot": 0,
        "tle_line1": "1 37841U 11058D   25340.79556374  .00000548  00000+0  15346-3 0  9996",
        "tle_line2": "2 37841  19.9699 143.9277 0011715 247.4073 156.7228 14.11508393730605"
      },
      "geometry": {
        "type": "Point",
        "coordinates": [
          -56.04699892820757,
          6.006229549578622
        ]
      }
    },
    {
      "type": "Feature",
      "properties": {
        "norad_id": 38012,
        "name": "PLEIADES 1A",
        "group": "resource",
        "lat": 49.54995492679105,
        "lon": 44.44901337915878,
        "alt_km": 692.4914921113186,
        "timestamp": "2025-12-07T07:31:35.959806+00:00",
        "meta_object_name": "PLEIADES 1A",
        "meta_object_id": "2011-076F",
        "meta_epoch": "2025-12-06T21:56:55.453344",
        "meta_mean_motion": 14.58552794,
        "meta_eccentricity": 0.00013563,
        "meta_inclination": 98.1831,
        "meta_ra_of_asc_node": 53.7729,
        "meta_arg_of_pericenter": 79.4165,
        "meta_mean_anomaly": 36.6651,
        "meta_ephemeris_type": 0,
        "meta_classification_type": "U",
        "meta_norad_cat_id": 38012,
        "meta_element_set_no": 999,
        "meta_rev_at_epoch": 74396,
        "meta_bstar": 0.00018287354,
        "meta_mean_motion_dot": 8.05e-06,
        "meta_mean_motion_ddot": 0,
        "tle_line1": "1 38012U 11076F   25340.91453071  .00000805  00000+0  18287-3 0  9994",
        "tle_line2": "2 38012  98.1831  53.7729 0001356  79.4165  36.6651 14.58552794743962"
      },
      "geometry": {
        "type": "Point",
        "coordinates": [
          44.44901337915878,
          49.54995492679105
        ]
      }
    },
    {
      "type": "Feature",
      "properties": {
        "norad_id": 38038,
        "name": "ZIYUAN 1-02C (ZY 1-02C)",
        "group": "resource",
        "lat": -1.2610480341862709,
        "lon": 47.61441035898819,
        "alt_km": 772.705633407918,
        "timestamp": "2025-12-07T07:31:35.959816+00:00",
        "meta_object_name": "ZIYUAN 1-02C (ZY 1-02C)",
        "meta_object_id": "2011-079A",
        "meta_epoch": "2025-12-06T22:18:59.174784",
        "meta_mean_motion": 14.3800205,
        "meta_eccentricity": 0.00069598,
        "meta_inclination": 98.4342,
        "meta_ra_of_asc_node": 47.0506,
        "meta_arg_of_pericenter": 154.5635,
        "meta_mean_anomaly": 18.8149,
        "meta_ephemeris_type": 0,
        "meta_classification_type": "U",
        "meta_norad_cat_id": 38038,
        "meta_element_set_no": 999,
        "meta_rev_at_epoch": 73157,
        "meta_bstar": 0.00031572486,
        "meta_mean_motion_dot": 9.12e-06,
        "meta_mean_motion_ddot": 0,
        "tle_line1": "1 38038U 11079A   25340.92985156  .00000912  00000+0  31572-3 0  9991",
        "tle_line2": "2 38038  98.4342  47.0506 0006959 154.5635  18.8149 14.38002050731571"
      },
      "geometry": {
        "type": "Point",
        "coordinates": [
          47.61441035898819,
          -1.2610480341862709
        ]
      }
    },
    {
      "type": "Feature",
      "properties": {
        "norad_id": 38046,
        "name": "ZIYUAN 3-1 (ZY 3-1)",
        "group": "resource",
        "lat": 41.06423055052893,
        "lon": -126.08936793053897,
        "alt_km": 363.55631170600645,
        "timestamp": "2025-12-07T07:31:35.959826+00:00",
        "meta_object_name": "ZIYUAN 3-1 (ZY 3-1)",
        "meta_object_id": "2012-001A",
        "meta_epoch": "2025-12-06T21:44:43.133856",
        "meta_mean_motion": 15.67465053,
        "meta_eccentricity": 0.00020457,
        "meta_inclination": 97.1761,
        "meta_ra_of_asc_node": 47.1917,
        "meta_arg_of_pericenter": 17.367,
        "meta_mean_anomaly": 342.7661,
        "meta_ephemeris_type": 0,
        "meta_classification_type": "U",
        "meta_norad_cat_id": 38046,
        "meta_element_set_no": 999,
        "meta_rev_at_epoch": 77405,
        "meta_bstar": 0.00080846838,
        "meta_mean_motion_dot": 0.0008813,
        "meta_mean_motion_ddot": 0,
        "tle_line1": "1 38046U 12001A   25340.90605479  .00088130  00000+0  80847-3 0  9998",
        "tle_line2": "2 38046  97.1761  47.1917 0002045  17.3670 342.7661 15.67465053774052"
      },
      "geometry": {
        "type": "Point",
        "coordinates": [
          -126.08936793053897,
          41.06423055052893
        ]
      }
    },
    {
      "type": "Feature",
      "properties": {
        "norad_id": 38338,
        "name": "ARIRANG-3 (KOMPSAT-3)",
        "group": "resource",
        "lat": -64.87989311870086,
        "lon": 97.64937078705346,
        "alt_km": 696.3015951712996,
        "timestamp": "2025-12-07T07:31:35.959837+00:00",
        "meta_object_name": "ARIRANG-3 (KOMPSAT-3)",
        "meta_object_id": "2012-025B",
        "meta_epoch": "2025-12-06T22:11:20.507424",
        "meta_mean_motion": 14.61700493,
        "meta_eccentricity": 0.00057739,
        "meta_inclination": 98.3315,
        "meta_ra_of_asc_node": 295.4704,
        "meta_arg_of_pericenter": 357.5765,
        "meta_mean_anomaly": 2.5407,
        "meta_ephemeris_type": 0,
        "meta_classification_type": "U",
        "meta_norad_cat_id": 38338,
        "meta_element_set_no": 999,
        "meta_rev_at_epoch": 72325,
        "meta_bstar": 0.00023379495,
        "meta_mean_motion_dot": 1.116e-05,
        "meta_mean_motion_ddot": 0,
        "tle_line1": "1 38338U 12025B   25340.92454291  .00001116  00000+0  23379-3 0  9990",
        "tle_line2": "2 38338  98.3315 295.4704 0005773 357.5765   2.5407 14.61700493723259"
      },
      "geometry": {
        "type": "Point",
        "coordinates": [
          97.64937078705346,
          -64.87989311870086
        ]
      }
    }
  ]
}